OBJECT_NAME,OBJECT_ID,EPOCH,MEAN_MOTION,ECCENTRICITY,INCLINATION,RA_OF_ASC_NODE,ARG_OF_PERICENTER,MEAN_ANOMALY,EPHEMERIS_TYPE,CLASSIFICATION_TYPE,NORAD_CAT_ID,ELEMENT_SET_NO,REV_AT_EPOCH,BSTAR,MEAN_MOTION_DOT,MEAN_MOTION_DDOT
GLOBALSTAR M069,2007-020C,2026-06-07T14:55:23.138112,12.23470931,.0002526,52.0043,279.2001,128.3228,245.2231,0,U,31573,999,87763,.23762E-3,-.67E-6,0
GLOBALSTAR M072,2007-020D,2026-06-08T01:56:08.491776,11.91658483,.0001373,51.9909,124.4888,306.8467,133.3638,0,U,31574,999,87389,.20806E-3,-.69E-6,0
GLOBALSTAR M066,2007-048C,2026-06-07T23:34:01.668864,12.30388743,.0005314,51.9587,84.3367,24.4172,56.6252,0,U,32265,999,85909,-.21078E-3,-.119E-5,0
GLOBALSTAR M079,2010-054A,2026-06-08T02:42:56.997216,12.62265970,.0000488,52.0016,136.2918,0.5369,78.3475,0,U,37188,999,72140,.63574E-4,-.92E-6,0
GLOBALSTAR M074,2010-054B,2026-06-08T04:54:05.891904,12.62268412,.0000343,51.9993,135.2810,45.3805,327.7188,0,U,37189,999,72202,.38127E-4,-.97E-6,0
GLOBALSTAR M076,2010-054C,2026-06-08T04:00:27.198144,12.62261824,.0000537,52.0006,135.5964,31.8909,52.1301,0,U,37190,999,72173,.42206E-4,-.96E-6,0
GLOBALSTAR M077,2010-054D,2026-06-07T21:39:29.634048,11.67547620,.0002881,51.9933,202.8631,155.8900,14.9562,0,U,37191,999,72005,-.5937E-4,-.81E-6,0
GLOBALSTAR M075,2010-054E,2026-06-07T19:17:21.611040,12.62267315,.0000063,51.9921,178.7641,156.1139,16.1029,0,U,37192,999,72075,-.18387E-4,-.107E-5,0
GLOBALSTAR M073,2010-054F,2026-06-07T13:35:14.934048,12.62262154,.0000731,52.0058,93.5780,28.4102,142.3845,0,U,37193,999,72271,.64891E-4,-.92E-6,0
GLOBALSTAR M083,2011-033A,2026-06-07T22:34:23.870784,12.62262882,.0000827,51.9872,40.6801,54.4926,319.9022,0,U,37739,999,69178,.13845E-4,-.101E-5,0
GLOBALSTAR M088,2011-033B,2026-06-08T04:28:52.752288,12.62268578,.0000843,52.0229,306.3380,112.7304,59.0579,0,U,37740,999,68735,.92801E-4,-.87E-6,0
GLOBALSTAR M091,2011-033C,2026-06-08T00:59:35.016000,12.62263720,.0000519,52.0005,269.7587,136.2229,35.8694,0,U,37741,999,68812,.75069E-4,-.9E-6,0
GLOBALSTAR M085,2011-033D,2026-06-07T22:46:00.645312,12.62263933,.0000203,52.0112,221.3257,179.4908,350.9855,0,U,37742,999,68862,.42446E-4,-.96E-6,0
GLOBALSTAR M081,2011-033E,2026-06-07T21:30:20.915424,12.62264801,.0000261,51.9944,223.9326,129.5850,41.5895,0,U,37743,999,68876,.24295E-4,-.99E-6,0
GLOBALSTAR M089,2011-033F,2026-06-07T18:38:59.814816,12.62266990,.0000375,51.9904,178.4550,103.4413,67.5335,0,U,37744,999,68959,.47543E-4,-.95E-6,0
GLOBALSTAR M084,2011-080A,2026-06-07T23:50:19.709088,12.62267522,.0001019,52.0025,45.2714,71.9918,301.8684,0,U,38040,999,66760,.55087E-4,-.94E-6,0
GLOBALSTAR M080,2011-080B,2026-06-07T23:08:45.345408,12.62269216,.0000278,52.0075,47.0741,67.7942,304.8050,0,U,38041,999,66772,.13976E-4,-.101E-5,0
GLOBALSTAR M082,2011-080C,2026-06-07T20:35:29.999040,12.62269896,.0000541,52.0098,2.8982,85.6173,93.2689,0,U,38042,999,66841,.72851E-4,-.91E-6,0
GLOBALSTAR M092,2011-080D,2026-06-08T02:42:47.113056,12.62266835,.000053,52.0083,92.5176,51.0168,326.4525,0,U,38043,999,66690,.62523E-4,-.93E-6,0
GLOBALSTAR M090,2011-080E,2026-06-07T20:21:15.742368,12.62268990,.0000801,52.0144,356.8814,79.5657,293.3025,0,U,38044,999,66853,.76868E-4,-.9E-6,0
GLOBALSTAR M086,2011-080F,2026-06-07T20:53:08.747232,12.62286550,.0001628,51.9915,356.7591,51.2573,322.6250,0,U,38045,999,66848,.11167E-3,-.84E-6,0
GLOBALSTAR M097,2013-005A,2026-06-08T01:21:27.971136,12.62247228,.0000467,52.0054,271.1305,121.7186,238.3726,0,U,39072,999,61575,.11824E-3,-.83E-6,0
GLOBALSTAR M093,2013-005B,2026-06-07T13:18:56.159424,12.62265685,.0000337,52.0111,266.0008,107.5188,252.5716,0,U,39073,999,61564,.97186E-4,-.86E-6,0
GLOBALSTAR M094,2013-005C,2026-06-07T19:00:54.038304,12.62268543,.0000176,51.9930,179.4045,329.7677,30.3179,0,U,39074,999,61728,.30602E-4,-.98E-6,0
GLOBALSTAR M096,2013-005D,2026-06-07T21:14:17.680704,12.62265365,.0000208,52.0063,227.9171,158.8306,201.2570,0,U,39075,999,61621,.29689E-4,-.98E-6,0
GLOBALSTAR M078,2013-005E,2026-06-07T16:47:19.270176,12.62259561,.0000591,51.9894,312.5020,190.9080,169.1774,0,U,39076,999,61481,-.18768E-3,-.137E-5,0
GLOBALSTAR M095,2013-005F,2026-06-08T02:56:00.483648,12.62263356,.0000387,52.0095,308.8064,121.3808,238.7096,0,U,39077,999,61472,.63136E-4,-.92E-6,0
GLOBALSTAR M087,2022-064A,2026-06-07T23:27:05.117184,12.62268932,.000056,51.9995,90.4912,17.7567,342.3319,0,U,52888,999,18997,.83954E-4,-.89E-6,0
